[
  {
    "OBJECT_NAME": "STARLINK-4054",
    "OBJECT_ID": "22083AC",
    "EPOCH": "2025-11-11T06:57:23.400288",
    "MEAN_MOTION": 15.08841842,
    "ECCENTRICITY": 0.0001373,
    "INCLINATION": 53.2176,
    "RA_OF_ASC_NODE": 335.6392,
    "ARG_OF_PERICENTER": 88.707,
    "MEAN_ANOMALY": 271.4079,
    "EPHEMERIS_TYPE": 0,
    "CLASSIFICATION_TYPE": "U",
    "NORAD_CAT_ID": 53158,
    "ELEMENT_SET_NO": 999,
    "REV_AT_EPOCH": 18348,
    "BSTAR": 0.00012082,
    "MEAN_MOTION_DOT": 1.636e-05,
    "MEAN_MOTION_DDOT": 0.0,
    "TLE_LINE1": "1 53158U 22083AC  25315.28985417  .00001636  00000+0  12082-3 0  9998",
    "TLE_LINE2": "2 53158  53.2176 335.6392 0001373  88.7070 271.4079 15.08841842183488",
    "COMMENT": "Grouped by shell and plane from TLE"
  },
  {
    "OBJECT_NAME": "STARLINK-4111",
    "OBJECT_ID": "22083AD",
    "EPOCH": "2025-11-11T06:30:53.419104",
    "MEAN_MOTION": 15.08847112,
    "ECCENTRICITY": 0.0001337,
    "INCLINATION": 53.2173,
    "RA_OF_ASC_NODE": 335.7219,
    "ARG_OF_PERICENTER": 99.7481,
    "MEAN_ANOMALY": 260.3662,
    "EPHEMERIS_TYPE": 0,
    "CLASSIFICATION_TYPE": "U",
    "NORAD_CAT_ID": 53159,
    "ELEMENT_SET_NO": 999,
    "REV_AT_EPOCH": 18348,
    "BSTAR": 0.00011745,
    "MEAN_MOTION_DOT": 1.582e-05,
    "MEAN_MOTION_DDOT": 0.0,
    "TLE_LINE1": "1 53159U 22083AD  25315.27145161  .00001582  00000+0  11745-3 0  9997",
    "TLE_LINE2": "2 53159  53.2173 335.7219 0001337  99.7481 260.3662 15.08847112183484",
    "COMMENT": "Grouped by shell and plane from TLE"
  },
  {
    "OBJECT_NAME": "STARLINK-4096",
    "OBJECT_ID": "22083AE",
    "EPOCH": "2025-11-11T06:46:47.682912",
    "MEAN_MOTION": 15.08839223,
    "ECCENTRICITY": 0.0001293,
    "INCLINATION": 53.2178,
    "RA_OF_ASC_NODE": 335.6703,
    "ARG_OF_PERICENTER": 94.4915,
    "MEAN_ANOMALY": 265.6225,
    "EPHEMERIS_TYPE": 0,
    "CLASSIFICATION_TYPE": "U",
    "NORAD_CAT_ID": 53160,
    "ELEMENT_SET_NO": 999,
    "REV_AT_EPOCH": 18348,
    "BSTAR": 0.00010022,
    "MEAN_MOTION_DOT": 1.307e-05,
    "MEAN_MOTION_DDOT": 0.0,
    "TLE_LINE1": "1 53160U 22083AE  25315.28249633  .00001307  00000+0  10022-3 0  9991",
    "TLE_LINE2": "2 53160  53.2178 335.6703 0001293  94.4915 265.6225 15.08839223183480",
    "COMMENT": "Grouped by shell and plane from TLE"
  },
  {
    "OBJECT_NAME": "STARLINK-4055",
    "OBJECT_ID": "22083AF",
    "EPOCH": "2025-11-11T06:14:59.630496",
    "MEAN_MOTION": 15.08849773,
    "ECCENTRICITY": 0.0001345,
    "INCLINATION": 53.2174,
    "RA_OF_ASC_NODE": 335.7694,
    "ARG_OF_PERICENTER": 92.2361,
    "MEAN_ANOMALY": 267.8785,
    "EPHEMERIS_TYPE": 0,
    "CLASSIFICATION_TYPE": "U",
    "NORAD_CAT_ID": 53161,
    "ELEMENT_SET_NO": 999,
    "REV_AT_EPOCH": 18348,
    "BSTAR": 0.00016862,
    "MEAN_MOTION_DOT": 2.397e-05,
    "MEAN_MOTION_DDOT": 0.0,
    "TLE_LINE1": "1 53161U 22083AF  25315.26041239  .00002397  00000+0  16862-3 0  9990",
    "TLE_LINE2": "2 53161  53.2174 335.7694 0001345  92.2361 267.8785 15.08849773183482",
    "COMMENT": "Grouped by shell and plane from TLE"
  },
  {
    "OBJECT_NAME": "STARLINK-4114",
    "OBJECT_ID": "22083AG",
    "EPOCH": "2025-11-11T06:37:34.379904",
    "MEAN_MOTION": 15.08844192,
    "ECCENTRICITY": 0.0001408,
    "INCLINATION": 53.2168,
    "RA_OF_ASC_NODE": 335.7092,
    "ARG_OF_PERICENTER": 88.1943,
    "MEAN_ANOMALY": 271.9211,
    "EPHEMERIS_TYPE": 0,
    "CLASSIFICATION_TYPE": "U",
    "NORAD_CAT_ID": 53162,
    "ELEMENT_SET_NO": 999,
    "REV_AT_EPOCH": 18348,
    "BSTAR": 0.00013795,
    "MEAN_MOTION_DOT": 1.908e-05,
    "MEAN_MOTION_DDOT": 0.0,
    "TLE_LINE1": "1 53162U 22083AG  25315.27609236  .00001908  00000+0  13795-3 0  9998",
    "TLE_LINE2": "2 53162  53.2168 335.7092 0001408  88.1943 271.9211 15.08844192183488",
    "COMMENT": "Grouped by shell and plane from TLE"
  },
  {
    "OBJECT_NAME": "STARLINK-4104",
    "OBJECT_ID": "22083AH",
    "EPOCH": "2025-11-11T06:25:37.157088",
    "MEAN_MOTION": 15.08854207,
    "ECCENTRICITY": 0.0001187,
    "INCLINATION": 53.2175,
    "RA_OF_ASC_NODE": 335.8822,
    "ARG_OF_PERICENTER": 86.0855,
    "MEAN_ANOMALY": 274.0273,
    "EPHEMERIS_TYPE": 0,
    "CLASSIFICATION_TYPE": "U",
    "NORAD_CAT_ID": 53163,
    "ELEMENT_SET_NO": 999,
    "REV_AT_EPOCH": 18348,
    "BSTAR": 4.3431e-05,
    "MEAN_MOTION_DOT": 4.04e-06,
    "MEAN_MOTION_DDOT": 0.0,
    "TLE_LINE1": "1 53163U 22083AH  25315.26779117  .00000404  00000+0  43431-4 0  9995",
    "TLE_LINE2": "2 53163  53.2175 335.8822 0001187  86.0855 274.0273 15.08854207183482",
    "COMMENT": "Grouped by shell and plane from TLE"
  },
  {
    "OBJECT_NAME": "STARLINK-4116",
    "OBJECT_ID": "22083AJ",
    "EPOCH": "2025-11-11T06:20:17.958336",
    "MEAN_MOTION": 15.08849668,
    "ECCENTRICITY": 0.0001545,
    "INCLINATION": 53.2173,
    "RA_OF_ASC_NODE": 335.7526,
    "ARG_OF_PERICENTER": 96.5389,
    "MEAN_ANOMALY": 263.5779,
    "EPHEMERIS_TYPE": 0,
    "CLASSIFICATION_TYPE": "U",
    "NORAD_CAT_ID": 53164,
    "ELEMENT_SET_NO": 999,
    "REV_AT_EPOCH": 18348,
    "BSTAR": 0.00013519999999999998,
    "MEAN_MOTION_DOT": 1.865e-05,
    "MEAN_MOTION_DDOT": 0.0,
    "TLE_LINE1": "1 53164U 22083AJ  25315.26409674  .00001865  00000+0  13520-3 0  9991",
    "TLE_LINE2": "2 53164  53.2173 335.7526 0001545  96.5389 263.5779 15.08849668183486",
    "COMMENT": "Grouped by shell and plane from TLE"
  },
  {
    "OBJECT_NAME": "STARLINK-4090",
    "OBJECT_ID": "22083AK",
    "EPOCH": "2025-11-11T07:34:29.362368",
    "MEAN_MOTION": 15.08842318,
    "ECCENTRICITY": 0.0001366,
    "INCLINATION": 53.2179,
    "RA_OF_ASC_NODE": 335.5209,
    "ARG_OF_PERICENTER": 91.1053,
    "MEAN_ANOMALY": 269.0096,
    "EPHEMERIS_TYPE": 0,
    "CLASSIFICATION_TYPE": "U",
    "NORAD_CAT_ID": 53165,
    "ELEMENT_SET_NO": 999,
    "REV_AT_EPOCH": 18349,
    "BSTAR": 5.5667999999999996e-05,
    "MEAN_MOTION_DOT": 5.98e-06,
    "MEAN_MOTION_DDOT": 0.0,
    "TLE_LINE1": "1 53165U 22083AK  25315.31561762  .00000598  00000+0  55668-4 0  9997",
    "TLE_LINE2": "2 53165  53.2179 335.5209 0001366  91.1053 269.0096 15.08842318183498",
    "COMMENT": "Grouped by shell and plane from TLE"
  },
  {
    "OBJECT_NAME": "STARLINK-4110",
    "OBJECT_ID": "22083AL",
    "EPOCH": "2025-11-11T07:30:32.914080",
    "MEAN_MOTION": 15.08840706,
    "ECCENTRICITY": 0.0001424,
    "INCLINATION": 53.2177,
    "RA_OF_ASC_NODE": 335.4344,
    "ARG_OF_PERICENTER": 85.6323,
    "MEAN_ANOMALY": 274.4832,
    "EPHEMERIS_TYPE": 0,
    "CLASSIFICATION_TYPE": "U",
    "NORAD_CAT_ID": 53166,
    "ELEMENT_SET_NO": 999,
    "REV_AT_EPOCH": 18349,
    "BSTAR": 0.00010594,
    "MEAN_MOTION_DOT": 1.398e-05,
    "MEAN_MOTION_DDOT": 0.0,
    "TLE_LINE1": "1 53166U 22083AL  25315.31288095  .00001398  00000+0  10594-3 0  9990",
    "TLE_LINE2": "2 53166  53.2177 335.4344 0001424  85.6323 274.4832 15.08840706183496",
    "COMMENT": "Grouped by shell and plane from TLE"
  },
  {
    "OBJECT_NAME": "STARLINK-4105",
    "OBJECT_ID": "22083AN",
    "EPOCH": "2025-11-11T07:39:47.458656",
    "MEAN_MOTION": 15.08847329,
    "ECCENTRICITY": 0.0001572,
    "INCLINATION": 53.2191,
    "RA_OF_ASC_NODE": 335.5062,
    "ARG_OF_PERICENTER": 89.9165,
    "MEAN_ANOMALY": 270.2007,
    "EPHEMERIS_TYPE": 0,
    "CLASSIFICATION_TYPE": "U",
    "NORAD_CAT_ID": 53168,
    "ELEMENT_SET_NO": 999,
    "REV_AT_EPOCH": 18349,
    "BSTAR": 0.00011168,
    "MEAN_MOTION_DOT": 1.49e-05,
    "MEAN_MOTION_DDOT": 0.0,
    "TLE_LINE1": "1 53168U 22083AN  25315.31929929  .00001490  00000+0  11168-3 0  9991",
    "TLE_LINE2": "2 53168  53.2191 335.5062 0001572  89.9165 270.2007 15.08847329183493",
    "COMMENT": "Grouped by shell and plane from TLE"
  },
  {
    "OBJECT_NAME": "STARLINK-4095",
    "OBJECT_ID": "22083AQ",
    "EPOCH": "2025-11-11T06:44:48.259968",
    "MEAN_MOTION": 15.08834554,
    "ECCENTRICITY": 0.0001414,
    "INCLINATION": 53.2179,
    "RA_OF_ASC_NODE": 330.6286,
    "ARG_OF_PERICENTER": 87.7855,
    "MEAN_ANOMALY": 272.3299,
    "EPHEMERIS_TYPE": 0,
    "CLASSIFICATION_TYPE": "U",
    "NORAD_CAT_ID": 53170,
    "ELEMENT_SET_NO": 999,
    "REV_AT_EPOCH": 18355,
    "BSTAR": 1.2256000000000001e-05,
    "MEAN_MOTION_DOT": -9.3e-07,
    "MEAN_MOTION_DDOT": 0.0,
    "TLE_LINE1": "1 53170U 22083AQ  25315.28111412 -.00000093  00000+0  12256-4 0  9999",
    "TLE_LINE2": "2 53170  53.2179 330.6286 0001414  87.7855 272.3299 15.08834554183552",
    "COMMENT": "Grouped by shell and plane from TLE"
  },
  {
    "OBJECT_NAME": "STARLINK-4299",
    "OBJECT_ID": "22083AS",
    "EPOCH": "2025-11-11T06:34:11.874720",
    "MEAN_MOTION": 15.08833956,
    "ECCENTRICITY": 0.0001304,
    "INCLINATION": 53.2177,
    "RA_OF_ASC_NODE": 330.6212,
    "ARG_OF_PERICENTER": 92.1552,
    "MEAN_ANOMALY": 267.9589,
    "EPHEMERIS_TYPE": 0,
    "CLASSIFICATION_TYPE": "U",
    "NORAD_CAT_ID": 53172,
    "ELEMENT_SET_NO": 999,
    "REV_AT_EPOCH": 18354,
    "BSTAR": 0.0,
    "MEAN_MOTION_DOT": -1.775e-05,
    "MEAN_MOTION_DDOT": 0.0,
    "TLE_LINE1": "1 53172U 22083AS  25315.27374855 -.00001775  00000+0 -93477-4 0  9995",
    "TLE_LINE2": "2 53172  53.2177 330.6212 0001304  92.1552 267.9589 15.08833956183549",
    "COMMENT": "Grouped by shell and plane from TLE"
  },
  {
    "OBJECT_NAME": "STARLINK-4280",
    "OBJECT_ID": "22083AY",
    "EPOCH": "2025-11-11T05:53:48.547392",
    "MEAN_MOTION": 15.08830616,
    "ECCENTRICITY": 0.0001251,
    "INCLINATION": 53.2179,
    "RA_OF_ASC_NODE": 335.8357,
    "ARG_OF_PERICENTER": 88.5352,
    "MEAN_ANOMALY": 271.5783,
    "EPHEMERIS_TYPE": 0,
    "CLASSIFICATION_TYPE": "U",
    "NORAD_CAT_ID": 53178,
    "ELEMENT_SET_NO": 999,
    "REV_AT_EPOCH": 18346,
    "BSTAR": 0.0,
    "MEAN_MOTION_DOT": -1.168e-05,
    "MEAN_MOTION_DDOT": 0.0,
    "TLE_LINE1": "1 53178U 22083AY  25315.24570078 -.00001168  00000+0 -55323-4 0  9997",
    "TLE_LINE2": "2 53178  53.2179 335.8357 0001251  88.5352 271.5783 15.08830616183460",
    "COMMENT": "Grouped by shell and plane from TLE"
  }
]